CCSDS_OMM_VERS = 2.0
CREATION_DATE  = 
ORIGINATOR     = 

OBJECT_NAME    = STARLINK-36517
OBJECT_ID      = 2026-008K
CENTER_NAME    = EARTH
REF_FRAME      = TEME
TIME_SYSTEM    = UTC
MEAN_ELEMENT_THEORY = SGP/SGP4

EPOCH          = 2026-01-31T22:00:03.000096
MEAN_MOTION    = 15.75299566
ECCENTRICITY   = .00013832
INCLINATION    = 43.0003
RA_OF_ASC_NODE = 56.6237
ARG_OF_PERICENTER = 267.4485
MEAN_ANOMALY   = 163.9183

EPHEMERIS_TYPE = 0
CLASSIFICATION_TYPE = U
NORAD_CAT_ID   = 67454
ELEMENT_SET_NO = 999
REV_AT_EPOCH   = 390
BSTAR          = -.14051668E-1
MEAN_MOTION_DOT = -.189907E-1
MEAN_MOTION_DDOT = 0

CCSDS_OMM_VERS = 2.0
CREATION_DATE  = 
ORIGINATOR     = 

OBJECT_NAME    = STARLINK-36516
OBJECT_ID      = 2026-008L
CENTER_NAME    = EARTH
REF_FRAME      = TEME
TIME_SYSTEM    = UTC
MEAN_ELEMENT_THEORY = SGP/SGP4

EPOCH          = 2026-01-31T22:00:03.000096
MEAN_MOTION    = 15.75019063
ECCENTRICITY   = .00014584
INCLINATION    = 43.0003
RA_OF_ASC_NODE = 56.6099
ARG_OF_PERICENTER = 261.6607
MEAN_ANOMALY   = 175.4922

EPHEMERIS_TYPE = 0
CLASSIFICATION_TYPE = U
NORAD_CAT_ID   = 67455
ELEMENT_SET_NO = 999
REV_AT_EPOCH   = 388
BSTAR          = .96742843E-4
MEAN_MOTION_DOT = .14395E-3
MEAN_MOTION_DDOT = 0

CCSDS_OMM_VERS = 2.0
CREATION_DATE  = 
ORIGINATOR     = 

OBJECT_NAME    = STARLINK-36493
OBJECT_ID      = 2026-008M
CENTER_NAME    = EARTH
REF_FRAME      = TEME
TIME_SYSTEM    = UTC
MEAN_ELEMENT_THEORY = SGP/SGP4

EPOCH          = 2026-01-31T22:00:03.000096
MEAN_MOTION    = 15.75040179
ECCENTRICITY   = .00016409
INCLINATION    = 43.0003
RA_OF_ASC_NODE = 56.6198
ARG_OF_PERICENTER = 267.5629
MEAN_ANOMALY   = 165.7399

EPHEMERIS_TYPE = 0
CLASSIFICATION_TYPE = U
NORAD_CAT_ID   = 67456
ELEMENT_SET_NO = 999
REV_AT_EPOCH   = 388
BSTAR          = -.14342458E-3
MEAN_MOTION_DOT = -.22451E-3
MEAN_MOTION_DDOT = 0

CCSDS_OMM_VERS = 2.0
CREATION_DATE  = 
ORIGINATOR     = 

OBJECT_NAME    = STARLINK-36529
OBJECT_ID      = 2026-008N
CENTER_NAME    = EARTH
REF_FRAME      = TEME
TIME_SYSTEM    = UTC
MEAN_ELEMENT_THEORY = SGP/SGP4

EPOCH          = 2026-01-31T22:00:03.000096
MEAN_MOTION    = 15.75050624
ECCENTRICITY   = .00016174
INCLINATION    = 43.0003
RA_OF_ASC_NODE = 56.6146
ARG_OF_PERICENTER = 260.6644
MEAN_ANOMALY   = 174.5698

EPHEMERIS_TYPE = 0
CLASSIFICATION_TYPE = U
NORAD_CAT_ID   = 67457
ELEMENT_SET_NO = 999
REV_AT_EPOCH   = 388
BSTAR          = -.36469349E-3
MEAN_MOTION_DOT = -.56155E-3
MEAN_MOTION_DDOT = 0

CCSDS_OMM_VERS = 2.0
CREATION_DATE  = 
ORIGINATOR     = 

OBJECT_NAME    = STARLINK-36528
OBJECT_ID      = 2026-008P
CENTER_NAME    = EARTH
REF_FRAME      = TEME
TIME_SYSTEM    = UTC
MEAN_ELEMENT_THEORY = SGP/SGP4

EPOCH          = 2026-01-31T22:00:03.000096
MEAN_MOTION    = 15.75051899
ECCENTRICITY   = .00008585
INCLINATION    = 43.0004
RA_OF_ASC_NODE = 56.6055
ARG_OF_PERICENTER = 227.1150
MEAN_ANOMALY   = 211.9376

EPHEMERIS_TYPE = 0
CLASSIFICATION_TYPE = U
NORAD_CAT_ID   = 67458
ELEMENT_SET_NO = 999
REV_AT_EPOCH   = 390
BSTAR          = -.19516955E-3
MEAN_MOTION_DOT = -.30363E-3
MEAN_MOTION_DDOT = 0

CCSDS_OMM_VERS = 2.0
CREATION_DATE  = 
ORIGINATOR     = 

OBJECT_NAME    = STARLINK-36546
OBJECT_ID      = 2026-008Q
CENTER_NAME    = EARTH
REF_FRAME      = TEME
TIME_SYSTEM    = UTC
MEAN_ELEMENT_THEORY = SGP/SGP4

EPOCH          = 2026-01-31T22:00:03.000096
MEAN_MOTION    = 15.75045597
ECCENTRICITY   = .00014879
INCLINATION    = 43.0002
RA_OF_ASC_NODE = 56.6001
ARG_OF_PERICENTER = 260.9872
MEAN_ANOMALY   = 179.9831

EPHEMERIS_TYPE = 0
CLASSIFICATION_TYPE = U
NORAD_CAT_ID   = 67459
ELEMENT_SET_NO = 999
REV_AT_EPOCH   = 388
BSTAR          = -.91712685E-4
MEAN_MOTION_DOT = -.14545E-3
MEAN_MOTION_DDOT = 0

CCSDS_OMM_VERS = 2.0
CREATION_DATE  = 
ORIGINATOR     = 

OBJECT_NAME    = STARLINK-36523
OBJECT_ID      = 2026-008R
CENTER_NAME    = EARTH
REF_FRAME      = TEME
TIME_SYSTEM    = UTC
MEAN_ELEMENT_THEORY = SGP/SGP4

EPOCH          = 2026-01-31T22:00:03.000096
MEAN_MOTION    = 15.75041578
ECCENTRICITY   = .00016248
INCLINATION    = 43.0001
RA_OF_ASC_NODE = 56.5952
ARG_OF_PERICENTER = 258.4827
MEAN_ANOMALY   = 184.4080

EPHEMERIS_TYPE = 0
CLASSIFICATION_TYPE = U
NORAD_CAT_ID   = 67460
ELEMENT_SET_NO = 999
REV_AT_EPOCH   = 390
BSTAR          = -.59517985E-4
MEAN_MOTION_DOT = -.9611E-4
MEAN_MOTION_DDOT = 0

CCSDS_OMM_VERS = 2.0
CREATION_DATE  = 
ORIGINATOR     = 

OBJECT_NAME    = STARLINK-36522
OBJECT_ID      = 2026-008S
CENTER_NAME    = EARTH
REF_FRAME      = TEME
TIME_SYSTEM    = UTC
MEAN_ELEMENT_THEORY = SGP/SGP4

EPOCH          = 2026-01-31T22:00:03.000096
MEAN_MOTION    = 15.75027097
ECCENTRICITY   = .00015135
INCLINATION    = 43.0002
RA_OF_ASC_NODE = 56.5904
ARG_OF_PERICENTER = 262.1824
MEAN_ANOMALY   = 182.6236

EPHEMERIS_TYPE = 0
CLASSIFICATION_TYPE = U
NORAD_CAT_ID   = 67461
ELEMENT_SET_NO = 999
REV_AT_EPOCH   = 388
BSTAR          = .13716806E-3
MEAN_MOTION_DOT = .20633E-3
MEAN_MOTION_DDOT = 0

CCSDS_OMM_VERS = 2.0
CREATION_DATE  = 
ORIGINATOR     = 

OBJECT_NAME    = STARLINK-36504
OBJECT_ID      = 2026-008T
CENTER_NAME    = EARTH
REF_FRAME      = TEME
TIME_SYSTEM    = UTC
MEAN_ELEMENT_THEORY = SGP/SGP4

EPOCH          = 2026-01-31T22:00:03.000096
MEAN_MOTION    = 15.75049875
ECCENTRICITY   = .00013745
INCLINATION    = 43.0001
RA_OF_ASC_NODE = 56.5856
ARG_OF_PERICENTER = 262.5785
MEAN_ANOMALY   = 184.1415

EPHEMERIS_TYPE = 0
CLASSIFICATION_TYPE = U
NORAD_CAT_ID   = 67462
ELEMENT_SET_NO = 999
REV_AT_EPOCH   = 390
BSTAR          = -.17916224E-3
MEAN_MOTION_DOT = -.2792E-3
MEAN_MOTION_DDOT = 0

CCSDS_OMM_VERS = 2.0
CREATION_DATE  = 
ORIGINATOR     = 

OBJECT_NAME    = STARLINK-36505
OBJECT_ID      = 2026-008U
CENTER_NAME    = EARTH
REF_FRAME      = TEME
TIME_SYSTEM    = UTC
MEAN_ELEMENT_THEORY = SGP/SGP4

EPOCH          = 2026-01-31T22:00:03.000096
MEAN_MOTION    = 15.75048937
ECCENTRICITY   = .00015153
INCLINATION    = 43.0001
RA_OF_ASC_NODE = 56.5816
ARG_OF_PERICENTER = 269.6169
MEAN_ANOMALY   = 179.0209

EPHEMERIS_TYPE = 0
CLASSIFICATION_TYPE = U
NORAD_CAT_ID   = 67463
ELEMENT_SET_NO = 999
REV_AT_EPOCH   = 388
BSTAR          = -.1409774E-3
MEAN_MOTION_DOT = -.22085E-3
MEAN_MOTION_DDOT = 0

CCSDS_OMM_VERS = 2.0
CREATION_DATE  = 
ORIGINATOR     = 

OBJECT_NAME    = STARLINK-36421
OBJECT_ID      = 2026-008V
CENTER_NAME    = EARTH
REF_FRAME      = TEME
TIME_SYSTEM    = UTC
MEAN_ELEMENT_THEORY = SGP/SGP4

EPOCH          = 2026-01-31T22:00:03.000096
MEAN_MOTION    = 15.75019030
ECCENTRICITY   = .00017825
INCLINATION    = 43.0002
RA_OF_ASC_NODE = 56.5760
ARG_OF_PERICENTER = 248.4322
MEAN_ANOMALY   = 202.1284

EPHEMERIS_TYPE = 0
CLASSIFICATION_TYPE = U
NORAD_CAT_ID   = 67464
ELEMENT_SET_NO = 999
REV_AT_EPOCH   = 388
BSTAR          = .2028847E-3
MEAN_MOTION_DOT = .30774E-3
MEAN_MOTION_DDOT = 0

CCSDS_OMM_VERS = 2.0
CREATION_DATE  = 
ORIGINATOR     = 

OBJECT_NAME    = STARLINK-36437
OBJECT_ID      = 2026-008W
CENTER_NAME    = EARTH
REF_FRAME      = TEME
TIME_SYSTEM    = UTC
MEAN_ELEMENT_THEORY = SGP/SGP4

EPOCH          = 2026-01-31T22:00:03.000096
MEAN_MOTION    = 15.75040884
ECCENTRICITY   = .00016693
INCLINATION    = 43.0001
RA_OF_ASC_NODE = 56.5710
ARG_OF_PERICENTER = 252.0923
MEAN_ANOMALY   = 200.3824

EPHEMERIS_TYPE = 0
CLASSIFICATION_TYPE = U
NORAD_CAT_ID   = 67465
ELEMENT_SET_NO = 999
REV_AT_EPOCH   = 388
BSTAR          = -.91594038E-4
MEAN_MOTION_DOT = -.14524E-3
MEAN_MOTION_DDOT = 0

CCSDS_OMM_VERS = 2.0
CREATION_DATE  = 
ORIGINATOR     = 

OBJECT_NAME    = STARLINK-36520
OBJECT_ID      = 2026-008X
CENTER_NAME    = EARTH
REF_FRAME      = TEME
TIME_SYSTEM    = UTC
MEAN_ELEMENT_THEORY = SGP/SGP4

EPOCH          = 2026-01-31T22:00:03.000096
MEAN_MOTION    = 15.75042734
ECCENTRICITY   = .0001683
INCLINATION    = 42.9999
RA_OF_ASC_NODE = 56.5660
ARG_OF_PERICENTER = 250.7996
MEAN_ANOMALY   = 203.5865

EPHEMERIS_TYPE = 0
CLASSIFICATION_TYPE = U
NORAD_CAT_ID   = 67466
ELEMENT_SET_NO = 999
REV_AT_EPOCH   = 388
BSTAR          = -.94978224E-4
MEAN_MOTION_DOT = -.15044E-3
MEAN_MOTION_DDOT = 0

CCSDS_OMM_VERS = 2.0
CREATION_DATE  = 
ORIGINATOR     = 

OBJECT_NAME    = STARLINK-36425
OBJECT_ID      = 2026-008Y
CENTER_NAME    = EARTH
REF_FRAME      = TEME
TIME_SYSTEM    = UTC
MEAN_ELEMENT_THEORY = SGP/SGP4

EPOCH          = 2026-01-31T22:00:03.000096
MEAN_MOTION    = 15.74539519
ECCENTRICITY   = .00009281
INCLINATION    = 42.9999
RA_OF_ASC_NODE = 56.5611
ARG_OF_PERICENTER = 254.9643
MEAN_ANOMALY   = 201.2507

EPHEMERIS_TYPE = 0
CLASSIFICATION_TYPE = U
NORAD_CAT_ID   = 67467
ELEMENT_SET_NO = 999
REV_AT_EPOCH   = 388
BSTAR          = -.15554662E-1
MEAN_MOTION_DOT = -.2057116E-1
MEAN_MOTION_DDOT = 0

CCSDS_OMM_VERS = 2.0
CREATION_DATE  = 
ORIGINATOR     = 

OBJECT_NAME    = STARLINK-36414
OBJECT_ID      = 2026-008Z
CENTER_NAME    = EARTH
REF_FRAME      = TEME
TIME_SYSTEM    = UTC
MEAN_ELEMENT_THEORY = SGP/SGP4

EPOCH          = 2026-01-31T22:00:03.000096
MEAN_MOTION    = 15.75025755
ECCENTRICITY   = .00020349
INCLINATION    = 43.0005
RA_OF_ASC_NODE = 56.2895
ARG_OF_PERICENTER = 276.1003
MEAN_ANOMALY   = 288.4674

EPHEMERIS_TYPE = 0
CLASSIFICATION_TYPE = U
NORAD_CAT_ID   = 67468
ELEMENT_SET_NO = 999
REV_AT_EPOCH   = 388
BSTAR          = -.4906967E-4
MEAN_MOTION_DOT = -.8004E-4
MEAN_MOTION_DDOT = 0

